0 COSMOS 540
1 06323U 72104A   13282.15756264  .00000134  00000-0  54805-4 0   300
2 06323 074.0803 311.3510 0018080 019.2762 013.6990 14.35994634133852
0 COSMOS 540
1 06323U 72104A   13283.50617729  .00000140  00000-0  56979-4 0   314
2 06323 074.0802 308.8819 0018124 016.5137 145.4215 14.35995049134046
0 COSMOS 540
1 06323U 72104A   13285.66143412  .00000129  00000-0  53092-4 0   338
2 06323 074.0798 304.9357 0018214 012.0040 127.2139 14.35995651134354
0 COSMOS 540
1 06323U 72104A   13287.10321546  .00000123  00000-0  51014-4 0   342
2 06323 074.0796 302.2957 0018260 009.0320 020.5876 14.35996407134563
0 COSMOS 540
1 06323U 72104A   13288.15095037  .00000185  00000-0  72319-4 0   351
2 06323 074.0797 300.3772 0018334 006.7868 037.0043 14.35997010134718
0 COSMOS 540
1 06323U 72104A   13289.20138669  .00000156  00000-0  62472-4 0   365
2 06323 074.0797 298.4537 0018368 004.6191 067.3060 14.35997456134862
0 COSMOS 540
1 06323U 72104A   13290.53962839  .00000141  00000-0  57290-4 0   374
2 06323 074.0797 296.0031 0018424 001.8795 145.4150 14.35997896135055
0 COSMOS 540
1 06323U 72104A   13291.58291182  .00000125  00000-0  51829-4 0   381
2 06323 074.0799 294.0928 0018485 359.7285 138.7395 14.35998068135201
0 COSMOS 540
1 06323U 72104A   13293.17213840  .00000175  00000-0  69012-4 0   392
2 06323 074.0801 291.1828 0018538 356.4380 074.3728 14.35998145135437
0 COSMOS 540
1 06323U 72104A   13294.51063992  .00000179  00000-0  70441-4 0   406
2 06323 074.0801 288.7321 0018579 353.7146 153.8137 14.35998913135623
0 COSMOS 540
1 06323U 72104A   13295.55390117  .00000198  00000-0  76967-4 0   414
2 06323 074.0802 286.8220 0018617 351.5665 147.0250 14.35999238135774
